COSMO-SKYMED 2          
1 32376U 07059A   26201.91632229  .00000217  00000+0  33867-4 0  9997
2 32376  97.8897  25.0267 0001468  93.9065 266.2316 14.82153355  7004
COSMO-SKYMED 3          
1 33412U 08054A   26201.93887646  .00002087  00000+0  14286-3 0  9992
2 33412  97.8252  61.0670 0016361 146.8179 213.4077 15.07139545962024
COSMO-SKYMED 4          
1 37216U 10060A   26201.92899284  .00000398  00000+0  56619-4 0  9998
2 37216  97.8901  25.0408 0001512  86.9803 273.1583 14.82151284849564
CYGFM04                 
1 41885U 16078B   26201.69388319  .00023318  00000+0  24495-3 0  9999
2 41885  34.9331   4.4017 0004277 149.0942 211.0036 15.63317465534248
CYGFM02                 
1 41886U 16078C   26201.69058210  .00028676  00000+0  26335-3 0  9991
2 41886  34.9411 357.9232 0005031 150.2375 209.8639 15.66648843534420
CYGFM01                 
1 41887U 16078D   26201.80611199  .00019896  00000+0  24942-3 0  9992
2 41887  34.9404  38.5009 0005150  91.0871 269.0444 15.58760852533957
CYGFM03                 
1 41891U 16078H   26201.69745317  .00021593  00000+0  24109-3 0  9996
2 41891  34.9410   8.1183 0004345 130.9389 229.1713 15.61770161534211
CSG-1                   
1 44873U 19092A   26201.94164350  .00000202  00000+0  31959-4 0  9994
2 44873  97.8900  25.0571 0001461  94.8050 265.3330 14.82159597356477
CSG-2                   
1 51444U 22008A   26200.35510889  .00000311  00000+0  45604-4 0  9996
2 51444  97.8896  23.4868 0001661  89.8481 270.2922 14.82176378241356
CSG-3                   
1 67304U 26001A   26201.41422676  .00000150  00000+0  25423-4 0  9997
2 67304  97.8898  24.5366 0001469  93.0499 267.0882 14.82165425 29384
